[{"OBJECT_NAME":"WSF-M","OBJECT_ID":"2024-070A","EPOCH":"2026-03-09T22:09:23.192640","MEAN_MOTION":14.20717963,"ECCENTRICITY":0.00037513,"INCLINATION":98.7203,"RA_OF_ASC_NODE":78.2024,"ARG_OF_PERICENTER":243.7691,"MEAN_ANOMALY":116.31,"EPHEMERIS_TYPE":0,"CLASSIFICATION_TYPE":"U","NORAD_CAT_ID":59481,"ELEMENT_SET_NO":999,"REV_AT_EPOCH":9900,"BSTAR":5.7491191e-5,"MEAN_MOTION_DOT":8.0e-7,"MEAN_MOTION_DDOT":0},{"OBJECT_NAME":"FENGYUN 1C DEB","OBJECT_ID":"1999-025AND","EPOCH":"2026-03-09T07:59:29.272416","MEAN_MOTION":14.32808444,"ECCENTRICITY":0.00737287,"INCLINATION":100.9943,"RA_OF_ASC_NODE":107.829,"ARG_OF_PERICENTER":141.6722,"MEAN_ANOMALY":282.5283,"EPHEMERIS_TYPE":0,"CLASSIFICATION_TYPE":"U","NORAD_CAT_ID":30622,"ELEMENT_SET_NO":999,"REV_AT_EPOCH":70037,"BSTAR":0.0030759847,"MEAN_MOTION_DOT":8.592e-5,"MEAN_MOTION_DDOT":0}]
